[{"OBJECT_NAME":"MONOLITH","OBJECT_ID":"2021-068A","EPOCH":"2026-03-09T13:05:30.210720","MEAN_MOTION":15.08010119,"ECCENTRICITY":0.00026796,"INCLINATION":37.022,"RA_OF_ASC_NODE":141.2957,"ARG_OF_PERICENTER":131.6464,"MEAN_ANOMALY":228.4511,"EPHEMERIS_TYPE":0,"CLASSIFICATION_TYPE":"U","NORAD_CAT_ID":49052,"ELEMENT_SET_NO":999,"REV_AT_EPOCH":25222,"BSTAR":0.00053655804,"MEAN_MOTION_DOT":8.348e-5,"MEAN_MOTION_DDOT":0},{"OBJECT_NAME":"STARLINK-3665","OBJECT_ID":"2022-029L","EPOCH":"2026-03-09T11:18:04.499424","MEAN_MOTION":15.08837687,"ECCENTRICITY":0.00013938,"INCLINATION":53.2164,"RA_OF_ASC_NODE":90.1019,"ARG_OF_PERICENTER":105.5649,"MEAN_ANOMALY":254.5497,"EPHEMERIS_TYPE":0,"CLASSIFICATION_TYPE":"U","NORAD_CAT_ID":52098,"ELEMENT_SET_NO":999,"REV_AT_EPOCH":22062,"BSTAR":-3.2334748e-5,"MEAN_MOTION_DOT":-8.02e-6,"MEAN_MOTION_DDOT":0}]
