MONOLITH                
1 49052U 21068A   26068.54548855  .00008348  00000+0  53656-3 0  9993
2 49052  37.0220 141.2957 0002679 131.6464 228.4511 15.08010119252226
STARLINK-3665           
1 52098U 22029L   26068.47088541 -.00000802  00000+0 -32335-4 0  9999
2 52098  53.2164  90.1019 0001393 105.5649 254.5497 15.08837687220624
